<?xml version="1.0" encoding="UTF-8"?>
<kml xmlns="http://www.opengis.net/kml/2.2" xmlns:atom="http://www.w3.org/2005/Atom">
<Document>
<atom:author>
  <atom:name>tripcal</atom:name>
</atom:author>
<name>2026-autumn</name>
<description>Total: 1585.8 mi</description>
<Style id="routeStyle">
  <LineStyle><color>ff0000ff</color><width>4</width></LineStyle>
</Style>
<Placemark>
  <name>Leg 1 (79.0 mi)</name>
  <styleUrl>#routeStyle</styleUrl>
  <LineString><tessellate>1</tessellate><coordinates>
-77.60885,43.15658,0
-77.60805,43.15478,0
-77.61039,43.15462,0
-77.61256,43.15447,0
-77.61436,43.15418,0
-77.61512,43.15413,0
-77.61555,43.15484,0
-77.61601,43.15548,0
-77.61752,43.1574,0
-77.61768,43.15758,0
-77.6179,43.15759,0
-77.61811,43.15748,0
-77.61921,43.15696,0
-77.61982,43.15669,0
-77.62034,43.15653,0
-77.62073,43.15657,0
-77.62178,43.15704,0
-77.62332,43.15753,0
-77.62545,43.15758,0
-77.63029,43.1567,0
-77.63544,43.15669,0
-77.64054,43.15678,0
-77.64395,43.1572,0
-77.64919,43.15721,0
-77.65511,43.15713,0
-77.66121,43.15752,0
-77.6664,43.15768,0
-77.67564,43.15779,0
-77.67982,43.1583,0
-77.6823,43.1584,0
-77.68641,43.15797,0
-77.68973,43.15756,0
-77.695,43.1572,0
-77.6994,43.15721,0
-77.70986,43.15803,0
-77.712,43.15797,0
-77.71284,43.15785,0
-77.71353,43.15762,0
-77.71539,43.15676,0
-77.71653,43.15583,0
-77.71707,43.15517,0
-77.71767,43.15394,0
-77.71781,43.15319,0
-77.71788,43.15208,0
-77.71793,43.14851,0
-77.71796,43.14463,0
-77.71812,43.13818,0
-77.71857,43.13647,0
-77.71966,43.13446,0
-77.72069,43.13322,0
-77.72231,43.13181,0
-77.72578,43.12891,0
-77.72837,43.12675,0
-77.73083,43.12499,0
-77.73385,43.12345,0
-77.73592,43.12268,0
-77.73805,43.12209,0
-77.74122,43.12155,0
-77.74335,43.12136,0
-77.75069,43.12077,0
-77.75451,43.12031,0
-77.7587,43.11951,0
-77.76308,43.1183,0
-77.7661,43.11721,0
-77.77094,43.11499,0
-77.77283,43.11392,0
-77.7763,43.11161,0
-77.77953,43.10913,0
-77.78579,43.10429,0
-77.78988,43.10114,0
-77.7934,43.09867,0
-77.79531,43.09763,0
-77.79771,43.09655,0
-77.80208,43.09513,0
-77.80636,43.09431,0
-77.81057,43.09399,0
-77.82873,43.09433,0
-77.83342,43.09459,0
-77.83773,43.09508,0
-77.84969,43.09644,0
-77.86032,43.09766,0
-77.86419,43.09808,0
-77.8666,43.09814,0
-77.86975,43.09775,0
-77.87317,43.09685,0
-77.88097,43.09469,0
-77.89441,43.09097,0
-77.89752,43.09011,0
-77.90215,43.08911,0
-77.91045,43.08787,0
-77.91963,43.08646,0
-77.92188,43.08587,0
-77.92366,43.08525,0
-77.92599,43.0842,0
-77.92875,43.08249,0
-77.93055,43.08099,0
-77.93191,43.07954,0
-77.93319,43.07775,0
-77.93587,43.07231,0
-77.93778,43.06838,0
-77.9403,43.0638,0
-77.94351,43.05806,0
-77.9477,43.05056,0
-77.94872,43.04876,0
-77.9499,43.04702,0
-77.951,43.04578,0
-77.95297,43.04403,0
-77.95663,43.04152,0
-77.96092,43.03863,0
-77.96269,43.03715,0
-77.96381,43.03559,0
-77.96448,43.03368,0
-77.96474,43.0307,0
-77.96499,43.03011,0
-77.96543,43.02968,0
-77.966,43.02946,0
-77.96838,43.02922,0
-77.97556,43.0293,0
-77.98579,43.02952,0
-78.00298,43.02989,0
-78.02551,43.0303,0
-78.0325,43.03038,0
-78.03785,43.03007,0
-78.04313,43.02935,0
-78.04736,43.02847,0
-78.05524,43.02621,0
-78.0659,43.02303,0
-78.09023,43.01578,0
-78.09451,43.01455,0
-78.09713,43.01403,0
-78.09951,43.01379,0
-78.1029,43.01378,0
-78.10508,43.01399,0
-78.10723,43.01438,0
-78.10933,43.01492,0
-78.11433,43.01681,0
-78.11998,43.0191,0
-78.12405,43.02063,0
-78.12784,43.0216,0
-78.13235,43.02223,0
-78.13528,43.02235,0
-78.14013,43.02211,0
-78.15271,43.0212,0
-78.16157,43.02057,0
-78.1702,43.01995,0
-78.19078,43.01859,0
-78.21209,43.018,0
-78.2593,43.01684,0
-78.2686,43.0166,0
-78.27698,43.01638,0
-78.28555,43.01587,0
-78.30231,43.01464,0
-78.31214,43.01391,0
-78.32793,43.01271,0
-78.34773,43.01132,0
-78.36102,43.01089,0
-78.37722,43.01066,0
-78.3902,43.01041,0
-78.3935,43.01019,0
-78.39711,43.00966,0
-78.40093,43.00879,0
-78.404,43.00783,0
-78.40678,43.00674,0
-78.40938,43.0055,0
-78.41691,43.00121,0
-78.42586,42.99606,0
-78.42867,42.99448,0
-78.43106,42.99341,0
-78.43418,42.99245,0
-78.43816,42.99158,0
-78.45148,42.98873,0
-78.46368,42.98612,0
-78.47333,42.98391,0
-78.47854,42.98241,0
-78.48092,42.98184,0
-78.48375,42.98135,0
-78.48653,42.98106,0
-78.48983,42.98093,0
-78.49601,42.98037,0
-78.50044,42.97956,0
-78.50254,42.97903,0
-78.50743,42.97745,0
-78.51149,42.97568,0
-78.51607,42.97345,0
-78.52004,42.9718,0
-78.52664,42.96955,0
-78.53095,42.96839,0
-78.53507,42.96748,0
-78.54347,42.96606,0
-78.55208,42.96464,0
-78.56138,42.96309,0
-78.56583,42.96206,0
-78.57299,42.96011,0
-78.58881,42.95583,0
-78.59641,42.95379,0
-78.60796,42.95072,0
-78.61026,42.95033,0
-78.61378,42.95004,0
-78.61893,42.94965,0
-78.63177,42.94867,0
-78.63685,42.94828,0
-78.6408,42.94798,0
-78.64481,42.94782,0
-78.65458,42.94768,0
-78.66097,42.9476,0
-78.66716,42.94751,0
-78.67073,42.94747,0
-78.67383,42.94755,0
-78.68032,42.94821,0
-78.68446,42.94864,0
-78.69379,42.94961,0
-78.70229,42.95048,0
-78.70519,42.95078,0
-78.70825,42.95087,0
-78.71341,42.95086,0
-78.72535,42.95086,0
-78.73174,42.95084,0
-78.7361,42.95112,0
-78.74099,42.95179,0
-78.7452,42.95215,0
-78.75145,42.95215,0
-78.75497,42.95214,0
-78.75724,42.952,0
-78.7591,42.95162,0
-78.76073,42.95149,0
-78.76231,42.95163,0
-78.76387,42.95211,0
-78.76527,42.95302,0
-78.76587,42.95371,0
-78.7661,42.95451,0
-78.76614,42.95522,0
-78.76618,42.95698,0
-78.767,42.96302,0
-78.76732,42.96441,0
-78.76786,42.96571,0
-78.76866,42.96699,0
-78.76983,42.96834,0
-78.77254,42.97055,0
-78.77687,42.97386,0
-78.77988,42.97617,0
-78.78171,42.97758,0
-78.78486,42.97963,0
-78.78805,42.98135,0
-78.79168,42.98331,0
-78.7932,42.98426,0
-78.79513,42.98575,0
-78.79668,42.9873,0
-78.79836,42.98939,0
-78.79969,42.99095,0
-78.80085,42.99208,0
-78.80441,42.99487,0
-78.8131,43.00147,0
-78.81434,43.00219,0
-78.81613,43.003,0
-78.81932,43.00392,0
-78.82257,43.0043,0
-78.82579,43.00416,0
-78.82863,43.00348,0
-78.83192,43.00232,0
-78.83524,43.00154,0
-78.83951,43.00114,0
-78.84469,43.00113,0
-78.84806,43.00112,0
-78.84965,43.00098,0
-78.85099,43.00072,0
-78.8529,43.00011,0
-78.85716,42.99787,0
-78.85982,42.99676,0
-78.86294,42.99602,0
-78.86651,42.99577,0
-78.87134,42.99572,0
-78.87646,42.99551,0
-78.88126,42.99506,0
-78.88705,42.99451,0
-78.8932,42.99389,0
-78.90038,42.99264,0
-78.90381,42.99194,0
-78.90561,42.99143,0
-78.90749,42.99078,0
-78.90901,42.99009,0
-78.91116,42.98895,0
-78.912,42.98862,0
-78.91309,42.98833,0
-78.91416,42.98822,0
-78.9162,42.98845,0
-78.91805,42.98915,0
-78.92374,42.99181,0
-78.92667,42.99301,0
-78.931,42.99537,0
-78.94075,43.00102,0
-78.94496,43.00343,0
-78.94807,43.00499,0
-78.95422,43.00768,0
-78.96376,43.01161,0
-78.96642,43.01275,0
-78.9687,43.01416,0
-78.97014,43.01551,0
-78.97189,43.01796,0
-78.97296,43.01991,0
-78.9735,43.02141,0
-78.97348,43.02157,0
-78.97258,43.02159,0
-78.97133,43.02162,0
-78.9694,43.02165,0
-78.96571,43.0217,0
  </coordinates></LineString>
</Placemark>
<Placemark>
  <name>Leg 2 (158.1 mi)</name>
  <styleUrl>#routeStyle</styleUrl>
  <LineString><tessellate>1</tessellate><coordinates>
-78.96571,43.0217,0
-78.97459,43.02155,0
-78.97535,43.02129,0
-78.97509,43.02074,0
-78.97425,43.0201,0
-78.97196,43.01764,0
-78.96954,43.01449,0
-78.96651,43.01254,0
-78.96074,43.01015,0
-78.94745,43.00444,0
-78.93021,42.99447,0
-78.91792,42.98896,0
-78.91493,42.98723,0
-78.91299,42.98734,0
-78.91036,42.98892,0
-78.9043,42.99161,0
-78.88789,42.99423,0
-78.87609,42.99535,0
-78.86189,42.99598,0
-78.8525,43.00004,0
-78.84895,43.00087,0
-78.84272,43.00094,0
-78.83331,43.00174,0
-78.82635,43.00387,0
-78.82051,43.00392,0
-78.81439,43.00198,0
-78.80147,42.99231,0
-78.79712,42.98745,0
-78.7908,42.98259,0
-78.78171,42.9773,0
-78.77268,42.97037,0
-78.76894,42.96703,0
-78.76744,42.96406,0
-78.76632,42.95429,0
-78.76563,42.95092,0
-78.76263,42.9498,0
-78.75987,42.951,0
-78.7564,42.95193,0
-78.74452,42.95194,0
-78.73519,42.95083,0
-78.72641,42.95067,0
-78.70981,42.95069,0
-78.69969,42.95003,0
-78.68017,42.94801,0
-78.67042,42.94719,0
-78.66066,42.94733,0
-78.63184,42.94839,0
-78.61046,42.95004,0
-78.58565,42.95642,0
-78.56162,42.9626,0
-78.54491,42.96543,0
-78.52744,42.96855,0
-78.51647,42.97292,0
-78.50802,42.97693,0
-78.49919,42.97946,0
-78.48507,42.98074,0
-78.47044,42.98432,0
-78.43212,42.99274,0
-78.41625,43.00132,0
-78.40452,43.00731,0
-78.39571,43.00909,0
-78.38074,43.00938,0
-78.35696,43.01032,0
-78.33466,43.01199,0
-78.28932,43.01537,0
-78.23772,43.01697,0
-78.20133,43.01785,0
-78.16072,43.02042,0
-78.14271,43.0217,0
-78.13237,43.02202,0
-78.12414,43.02045,0
-78.10758,43.01419,0
-78.1034,43.01352,0
-78.09794,43.01357,0
-78.08341,43.01738,0
-78.06267,43.02355,0
-78.04432,43.02857,0
-78.03271,43.02995,0
-78.01933,43.02992,0
-77.99086,43.02936,0
-77.94024,43.02825,0
-77.92159,43.02937,0
-77.90479,43.02999,0
-77.85963,43.02972,0
-77.84396,43.02962,0
-77.83223,43.02998,0
-77.82366,43.03224,0
-77.81489,43.03522,0
-77.79267,43.04253,0
-77.78226,43.04405,0
-77.7681,43.04455,0
-77.7447,43.04531,0
-77.73653,43.04456,0
-77.71496,43.04149,0
-77.6903,43.04284,0
-77.66973,43.04653,0
-77.64574,43.04788,0
-77.63235,43.04824,0
-77.6234,43.04761,0
-77.61197,43.0467,0
-77.59802,43.04723,0
-77.58457,43.04757,0
-77.57355,43.04683,0
-77.55212,43.04315,0
-77.52077,43.03277,0
-77.5127,43.02988,0
-77.50514,43.0261,0
-77.49031,43.01881,0
-77.48205,43.01555,0
-77.47172,43.01435,0
-77.45413,43.01299,0
-77.44554,43.01124,0
-77.43956,43.00895,0
-77.43337,43.00521,0
-77.42839,43.00211,0
-77.42341,43.00019,0
-77.40807,42.99775,0
-77.36828,42.99561,0
-77.35118,42.9947,0
-77.33582,42.99276,0
-77.31662,42.98892,0
-77.27344,42.98032,0
-77.25676,42.97904,0
-77.23109,42.97847,0
-77.21558,42.97716,0
-77.20446,42.97502,0
-77.19259,42.97465,0
-77.18329,42.97366,0
-77.16063,42.97303,0
-77.13768,42.97309,0
-77.11578,42.9738,0
-77.09562,42.9741,0
-77.08673,42.97314,0
-77.07854,42.97051,0
-77.07374,42.96933,0
-77.0687,42.96897,0
-77.05709,42.96779,0
-77.04675,42.96396,0
-77.03778,42.96002,0
-77.02757,42.95648,0
-77.01815,42.9556,0
-77.00695,42.95508,0
-76.98939,42.95486,0
-76.98551,42.95467,0
-76.98158,42.95321,0
-76.97786,42.95199,0
-76.97761,42.95082,0
-76.97794,42.93927,0
-76.97797,42.91406,0
-76.97795,42.91019,0
-76.97795,42.90912,0
-76.97795,42.90787,0
-76.97629,42.90761,0
-76.9755,42.90749,0
-76.97233,42.90693,0
-76.9688,42.90638,0
-76.96583,42.9063,0
-76.96047,42.9059,0
-76.95215,42.9035,0
-76.94866,42.90244,0
-76.94858,42.90072,0
-76.94832,42.89745,0
-76.94815,42.8953,0
-76.94711,42.89425,0
-76.94388,42.8911,0
-76.94071,42.8865,0
-76.94051,42.88311,0
-76.94056,42.88163,0
-76.94204,42.88034,0
-76.94455,42.87727,0
-76.94108,42.87482,0
-76.93898,42.87239,0
-76.93686,42.86967,0
-76.93634,42.86781,0
-76.9375,42.86478,0
-76.93786,42.86278,0
-76.93726,42.86092,0
-76.93495,42.85725,0
-76.93096,42.85575,0
-76.92497,42.8543,0
-76.90814,42.84823,0
-76.90492,42.84328,0
-76.90441,42.83796,0
-76.90104,42.83037,0
-76.90018,42.8212,0
-76.89884,42.79922,0
-76.89716,42.77213,0
-76.89588,42.75179,0
-76.89532,42.74334,0
-76.89208,42.73794,0
-76.89136,42.72599,0
-76.89357,42.71994,0
-76.89367,42.71724,0
-76.89308,42.71359,0
-76.89174,42.71163,0
-76.88218,42.70465,0
-76.87282,42.6985,0
-76.86647,42.69489,0
-76.86264,42.68961,0
-76.86154,42.68486,0
-76.86025,42.68345,0
-76.85622,42.68224,0
-76.84302,42.68032,0
-76.8298,42.68047,0
-76.79541,42.68147,0
-76.75118,42.68287,0
-76.74719,42.683,0
-76.74569,42.68307,0
-76.74484,42.68257,0
-76.74469,42.68114,0
-76.74431,42.68014,0
-76.74123,42.67681,0
-76.73843,42.67232,0
-76.73136,42.66945,0
-76.7291,42.66786,0
-76.71741,42.6534,0
-76.71064,42.64381,0
-76.70447,42.63742,0
-76.70351,42.63346,0
-76.7021,42.62417,0
-76.70068,42.62072,0
-76.69396,42.61435,0
-76.69268,42.61048,0
-76.69207,42.60452,0
-76.68948,42.60088,0
-76.68869,42.59809,0
-76.68518,42.59448,0
-76.67678,42.58826,0
-76.67201,42.58566,0
-76.66374,42.58251,0
-76.66014,42.58055,0
-76.65885,42.57878,0
-76.65632,42.57407,0
-76.65174,42.56767,0
-76.64863,42.56448,0
-76.64474,42.56175,0
-76.64134,42.55936,0
-76.6383,42.55642,0
-76.63503,42.55235,0
-76.61461,42.54636,0
-76.61039,42.54621,0
-76.60386,42.54694,0
-76.59917,42.54564,0
-76.59569,42.54269,0
-76.59264,42.54002,0
-76.58537,42.53577,0
-76.58042,42.53256,0
-76.57613,42.52891,0
-76.57312,42.52701,0
-76.56432,42.525,0
-76.55804,42.5219,0
-76.55538,42.51994,0
-76.5493,42.51347,0
-76.54729,42.50976,0
-76.54707,42.50536,0
-76.54625,42.50123,0
-76.54308,42.49754,0
-76.54009,42.49318,0
-76.53664,42.48497,0
-76.53419,42.47894,0
-76.5308,42.47308,0
-76.52355,42.46257,0
-76.51968,42.45782,0
-76.517,42.45347,0
-76.51375,42.45209,0
-76.51216,42.45096,0
-76.51228,42.44978,0
-76.51406,42.44509,0
-76.51396,42.44363,0
-76.51251,42.441,0
-76.51073,42.44095,0
-76.50908,42.44102,0
-76.50843,42.44104,0
-76.50852,42.44282,0
-76.50812,42.44433,0
-76.50683,42.44438,0
-76.50217,42.44451,0
-76.50195,42.44396,0
  </coordinates></LineString>
</Placemark>
<Placemark>
  <name>Leg 3 (106.0 mi)</name>
  <styleUrl>#routeStyle</styleUrl>
  <LineString><tessellate>1</tessellate><coordinates>
-76.50195,42.44396,0
-76.50182,42.44145,0
-76.50172,42.43946,0
-76.50129,42.43855,0
-76.50015,42.43859,0
-76.49738,42.43867,0
-76.49616,42.43871,0
-76.49503,42.43889,0
-76.4944,42.43916,0
-76.49211,42.43927,0
-76.48957,42.43926,0
-76.48205,42.43477,0
-76.47699,42.43214,0
-76.47034,42.42817,0
-76.45949,42.42091,0
-76.44893,42.41479,0
-76.43899,42.41005,0
-76.42017,42.40093,0
-76.41107,42.39651,0
-76.40619,42.39604,0
-76.39183,42.39519,0
-76.38056,42.39526,0
-76.37428,42.3942,0
-76.36097,42.39377,0
-76.34525,42.3939,0
-76.32233,42.38725,0
-76.30703,42.37972,0
-76.28789,42.37768,0
-76.28137,42.37751,0
-76.27681,42.3786,0
-76.27239,42.37895,0
-76.26815,42.37771,0
-76.26255,42.37552,0
-76.2573,42.3731,0
-76.25277,42.3712,0
-76.24825,42.36804,0
-76.23972,42.36299,0
-76.23794,42.36192,0
-76.23612,42.36214,0
-76.23467,42.36315,0
-76.23187,42.36515,0
-76.22851,42.36598,0
-76.22046,42.36619,0
-76.2164,42.36512,0
-76.21035,42.36036,0
-76.20463,42.357,0
-76.20319,42.35601,0
-76.19932,42.35667,0
-76.19612,42.35799,0
-76.19473,42.36112,0
-76.19379,42.36288,0
-76.1919,42.36424,0
-76.19046,42.36472,0
-76.18699,42.36472,0
-76.17777,42.36249,0
-76.17492,42.36214,0
-76.17102,42.3626,0
-76.16676,42.36477,0
-76.16011,42.37087,0
-76.15716,42.37185,0
-76.15345,42.37124,0
-76.13416,42.36656,0
-76.1233,42.36405,0
-76.11369,42.36426,0
-76.09883,42.36258,0
-76.08747,42.35932,0
-76.08052,42.35816,0
-76.07264,42.35791,0
-76.06278,42.35791,0
-76.05718,42.35896,0
-76.0537,42.35904,0
-76.04252,42.35629,0
-76.0312,42.35589,0
-76.02457,42.35528,0
-76.02067,42.3553,0
-76.01756,42.35432,0
-76.01219,42.35287,0
-76.00945,42.35329,0
-76.00689,42.35293,0
-76.00167,42.35007,0
-76.00053,42.34758,0
-75.99912,42.34513,0
-75.99129,42.34016,0
-75.97966,42.33139,0
-75.97463,42.32922,0
-75.96908,42.32574,0
-75.96816,42.32524,0
-75.96855,42.32478,0
-75.97034,42.32242,0
-75.97179,42.32047,0
-75.97117,42.32022,0
-75.96972,42.31986,0
-75.96712,42.31916,0
-75.96335,42.31764,0
-75.95906,42.31591,0
-75.95149,42.31204,0
-75.93972,42.30391,0
-75.92573,42.29558,0
-75.92419,42.29317,0
-75.92439,42.29067,0
-75.92731,42.28378,0
-75.9279,42.28108,0
-75.92764,42.27813,0
-75.92529,42.27302,0
-75.91876,42.25973,0
-75.91852,42.25132,0
-75.91802,42.24517,0
-75.91665,42.2389,0
-75.91511,42.23191,0
-75.91335,42.22695,0
-75.90864,42.22245,0
-75.90476,42.21547,0
-75.89945,42.20522,0
-75.89876,42.20196,0
-75.89892,42.19832,0
-75.90134,42.19036,0
-75.90247,42.18682,0
-75.90238,42.18372,0
-75.8983,42.17519,0
-75.89644,42.16944,0
-75.89586,42.16673,0
-75.89647,42.16376,0
-75.89799,42.15737,0
-75.89814,42.15466,0
-75.89689,42.15111,0
-75.89759,42.14824,0
-75.90013,42.14403,0
-75.90197,42.14058,0
-75.90317,42.13534,0
-75.90511,42.12595,0
-75.90966,42.11943,0
-75.91051,42.11791,0
-75.91021,42.1165,0
-75.90886,42.11524,0
-75.90699,42.11472,0
-75.89694,42.11509,0
-75.8859,42.11525,0
-75.87321,42.11188,0
-75.86957,42.1103,0
-75.86485,42.10989,0
-75.85912,42.10908,0
-75.85265,42.10698,0
-75.84742,42.107,0
-75.83955,42.10849,0
-75.83588,42.10757,0
-75.83408,42.10656,0
-75.82782,42.10278,0
-75.81965,42.09843,0
-75.81634,42.09678,0
-75.81338,42.09444,0
-75.81053,42.08752,0
-75.80464,42.0794,0
-75.80245,42.07616,0
-75.8009,42.07201,0
-75.79873,42.06462,0
-75.79942,42.0568,0
-75.79912,42.05395,0
-75.79768,42.05095,0
-75.79383,42.04404,0
-75.7904,42.03781,0
-75.78477,42.02193,0
-75.78202,42.01933,0
-75.77782,42.01765,0
-75.7674,42.01419,0
-75.76132,42.01008,0
-75.75699,42.00643,0
-75.75328,42.00122,0
-75.74855,41.986,0
-75.74317,41.97779,0
-75.74057,41.97236,0
-75.73933,41.96844,0
-75.73868,41.96651,0
-75.73702,41.96147,0
-75.73738,41.95814,0
-75.7381,41.9557,0
-75.73831,41.95287,0
-75.73697,41.94798,0
-75.73318,41.93817,0
-75.73088,41.93131,0
-75.73038,41.92734,0
-75.73086,41.92156,0
-75.73221,41.91189,0
-75.72766,41.89349,0
-75.72671,41.88819,0
-75.72344,41.88266,0
-75.7226,41.88099,0
-75.72137,41.875,0
-75.71795,41.87065,0
-75.7128,41.86789,0
-75.69802,41.86264,0
-75.68964,41.85967,0
-75.6863,41.85774,0
-75.68458,41.85524,0
-75.68369,41.85038,0
-75.68079,41.8323,0
-75.68021,41.82815,0
-75.68058,41.82411,0
-75.68177,41.81668,0
-75.68704,41.80823,0
-75.68845,41.80234,0
-75.68744,41.79665,0
-75.68442,41.78267,0
-75.68384,41.77939,0
-75.68438,41.77632,0
-75.68628,41.76908,0
-75.68695,41.76586,0
-75.68673,41.76236,0
-75.68422,41.75643,0
-75.67768,41.74314,0
-75.6766,41.73478,0
-75.67574,41.7244,0
-75.67528,41.72004,0
-75.67383,41.71695,0
-75.6714,41.71423,0
-75.67054,41.71144,0
-75.67061,41.70665,0
-75.66959,41.7038,0
-75.66949,41.70051,0
-75.67147,41.69819,0
-75.67512,41.69646,0
-75.67802,41.69421,0
-75.68405,41.68845,0
-75.68709,41.68554,0
-75.68854,41.68261,0
-75.68742,41.67939,0
-75.6849,41.67728,0
-75.68202,41.67444,0
-75.6804,41.67171,0
-75.6772,41.66546,0
-75.67585,41.6627,0
-75.67337,41.66075,0
-75.66202,41.65667,0
-75.65906,41.65447,0
-75.65834,41.65131,0
-75.6588,41.64741,0
-75.65776,41.64427,0
-75.65345,41.63903,0
-75.64777,41.63435,0
-75.64478,41.63166,0
-75.64355,41.62813,0
-75.64422,41.61807,0
-75.64458,41.61401,0
-75.64599,41.60845,0
-75.64941,41.59803,0
-75.65182,41.59129,0
-75.65379,41.58765,0
-75.6546,41.58177,0
-75.6545,41.57551,0
-75.65384,41.57258,0
-75.65186,41.56949,0
-75.65055,41.56723,0
-75.65071,41.56445,0
-75.65336,41.55937,0
-75.65203,41.55157,0
-75.65093,41.54642,0
-75.65077,41.5416,0
-75.65327,41.52897,0
-75.65725,41.52394,0
-75.66349,41.51699,0
-75.67216,41.5076,0
-75.67872,41.49791,0
-75.68067,41.49487,0
-75.68091,41.49226,0
-75.67861,41.48718,0
-75.67891,41.48479,0
-75.68066,41.48144,0
-75.68193,41.47887,0
-75.68195,41.47635,0
-75.68012,41.47398,0
-75.67717,41.47176,0
-75.66918,41.46844,0
-75.6671,41.46582,0
-75.66696,41.46205,0
-75.66541,41.45899,0
-75.66273,41.4569,0
-75.66216,41.45607,0
-75.66229,41.45521,0
-75.66557,41.45301,0
-75.67098,41.44624,0
-75.67126,41.44333,0
-75.66912,41.44047,0
-75.66755,41.43781,0
-75.66871,41.43452,0
-75.67113,41.42857,0
-75.67116,41.42265,0
-75.66975,41.41597,0
-75.66108,41.41033,0
  </coordinates></LineString>
</Placemark>
<Placemark>
  <name>Leg 4 (133.8 mi)</name>
  <styleUrl>#routeStyle</styleUrl>
  <LineString><tessellate>1</tessellate><coordinates>
-75.66108,41.41033,0
-75.65928,41.40919,0
-75.65934,41.40811,0
-75.6613,41.40637,0
-75.66029,41.40559,0
-75.6603,41.40425,0
-75.66,41.40333,0
-75.65585,41.40194,0
-75.64792,41.39731,0
-75.64833,41.3957,0
-75.6513,41.39373,0
-75.65882,41.38795,0
-75.66433,41.38266,0
-75.66914,41.37587,0
-75.67235,41.37406,0
-75.68039,41.37238,0
-75.69145,41.36848,0
-75.69967,41.36273,0
-75.7045,41.35941,0
-75.71115,41.35778,0
-75.71803,41.35712,0
-75.72314,41.35437,0
-75.73155,41.34348,0
-75.73575,41.33803,0
-75.73825,41.33245,0
-75.73784,41.3257,0
-75.73766,41.32153,0
-75.73997,41.31874,0
-75.75023,41.31358,0
-75.75889,41.31217,0
-75.75949,41.31277,0
-75.75828,41.3131,0
-75.75949,41.311,0
-75.76089,41.30988,0
-75.76254,41.30914,0
-75.76118,41.30828,0
-75.7585,41.3093,0
-75.75598,41.31012,0
-75.76308,41.30457,0
-75.76484,41.30099,0
-75.76489,41.29608,0
-75.76643,41.28568,0
-75.7695,41.27706,0
-75.77081,41.2738,0
-75.77395,41.27144,0
-75.77931,41.26742,0
-75.77936,41.26197,0
-75.77384,41.25797,0
-75.76819,41.25446,0
-75.76778,41.25146,0
-75.76941,41.24893,0
-75.77534,41.24581,0
-75.78126,41.24198,0
-75.79104,41.23364,0
-75.79826,41.22291,0
-75.80387,41.21439,0
-75.80361,41.21146,0
-75.80112,41.20893,0
-75.79496,41.20421,0
-75.7931,41.19452,0
-75.79133,41.18821,0
-75.78649,41.18157,0
-75.77801,41.1711,0
-75.77541,41.1653,0
-75.77477,41.15875,0
-75.77613,41.14684,0
-75.77756,41.13427,0
-75.77628,41.12811,0
-75.77134,41.12234,0
-75.75896,41.113,0
-75.74698,41.10104,0
-75.73733,41.0857,0
-75.73202,41.08016,0
-75.72431,41.07689,0
-75.71473,41.07512,0
-75.69822,41.07081,0
-75.68686,41.06168,0
-75.67317,41.04879,0
-75.65356,41.03031,0
-75.64409,41.02008,0
-75.63833,41.01256,0
-75.63358,40.9985,0
-75.62937,40.98233,0
-75.62854,40.97371,0
-75.63406,40.95288,0
-75.64146,40.93692,0
-75.64402,40.93014,0
-75.64829,40.91738,0
-75.6457,40.91055,0
-75.63974,40.9034,0
-75.63879,40.8994,0
-75.6397,40.89534,0
-75.64577,40.89028,0
-75.6531,40.88546,0
-75.65719,40.87951,0
-75.65698,40.8754,0
-75.6554,40.87205,0
-75.65225,40.86585,0
-75.64978,40.85997,0
-75.65281,40.85463,0
-75.66248,40.84289,0
-75.67502,40.83386,0
-75.67837,40.83009,0
-75.67875,40.82399,0
-75.67848,40.81969,0
-75.67645,40.81657,0
-75.67273,40.81046,0
-75.67403,40.79811,0
-75.67022,40.79271,0
-75.66247,40.78916,0
-75.65621,40.78574,0
-75.65077,40.77493,0
-75.64353,40.7655,0
-75.63617,40.75511,0
-75.63213,40.74479,0
-75.63007,40.73961,0
-75.62883,40.73581,0
-75.62882,40.72507,0
-75.62737,40.7207,0
-75.61439,40.70758,0
-75.60683,40.69956,0
-75.60462,40.69551,0
-75.60258,40.68896,0
-75.60005,40.68067,0
-75.59671,40.66969,0
-75.59072,40.65743,0
-75.5788,40.63545,0
-75.57686,40.62856,0
-75.57739,40.61708,0
-75.5755,40.6079,0
-75.57112,40.59999,0
-75.56714,40.59295,0
-75.57267,40.59452,0
-75.57303,40.59621,0
-75.57203,40.59582,0
-75.58067,40.59352,0
-75.60357,40.58396,0
-75.63765,40.57755,0
-75.65547,40.57528,0
-75.67696,40.57763,0
-75.70513,40.58004,0
-75.70724,40.58055,0
-75.70786,40.57882,0
-75.70812,40.5762,0
-75.70898,40.57359,0
-75.70756,40.57169,0
-75.70564,40.56469,0
-75.70838,40.56013,0
-75.70632,40.55539,0
-75.70902,40.55234,0
-75.71458,40.55103,0
-75.71489,40.54921,0
-75.71427,40.54607,0
-75.71571,40.54486,0
-75.71635,40.54296,0
-75.71679,40.54045,0
-75.71893,40.53933,0
-75.73145,40.53704,0
-75.74353,40.53433,0
-75.75667,40.53173,0
-75.76648,40.53165,0
-75.78349,40.52636,0
-75.78718,40.52433,0
-75.78981,40.52108,0
-75.79721,40.51133,0
-75.80578,40.50428,0
-75.80848,40.498,0
-75.82052,40.49269,0
-75.83898,40.48573,0
-75.84818,40.48167,0
-75.85761,40.47503,0
-75.86825,40.46521,0
-75.87733,40.45945,0
-75.88378,40.45611,0
-75.89087,40.45244,0
-75.89616,40.44951,0
-75.90463,40.44391,0
-75.91166,40.43209,0
-75.91451,40.42955,0
-75.92042,40.4243,0
-75.92964,40.41651,0
-75.9449,40.40839,0
-75.96896,40.3961,0
-75.97573,40.39164,0
-75.9817,40.38586,0
-75.98648,40.38043,0
-75.98897,40.3743,0
-75.99113,40.36538,0
-75.98862,40.36296,0
-75.98221,40.36066,0
-75.96667,40.35318,0
-75.96231,40.34927,0
-75.96596,40.34523,0
-75.96784,40.34319,0
-75.96816,40.34018,0
-75.96737,40.33533,0
-75.96998,40.33258,0
-75.97856,40.32868,0
-75.98099,40.32426,0
-75.9836,40.32219,0
-75.99303,40.31817,0
-75.99776,40.31183,0
-75.99944,40.30557,0
-75.99957,40.29848,0
-76.00224,40.29572,0
-76.00666,40.29357,0
-76.0127,40.28894,0
-76.01629,40.28315,0
-76.01959,40.27745,0
-76.02537,40.27251,0
-76.03121,40.26775,0
-76.03379,40.26003,0
-76.03729,40.24695,0
-76.0404,40.2413,0
-76.04979,40.23215,0
-76.05924,40.22589,0
-76.08044,40.21975,0
-76.10183,40.21216,0
-76.10989,40.2089,0
-76.11813,40.2046,0
-76.12212,40.19735,0
-76.12486,40.19065,0
-76.12739,40.18548,0
-76.13388,40.18089,0
-76.14627,40.17315,0
-76.14898,40.17099,0
-76.15062,40.16771,0
-76.15268,40.15962,0
-76.15784,40.15462,0
-76.16599,40.15091,0
-76.17453,40.15003,0
-76.18794,40.14609,0
-76.20239,40.14086,0
-76.20795,40.13685,0
-76.21542,40.13026,0
-76.2204,40.12497,0
-76.22732,40.11895,0
-76.24074,40.11474,0
-76.24551,40.11014,0
-76.25258,40.10531,0
-76.25753,40.10055,0
-76.26443,40.09001,0
-76.27444,40.08297,0
-76.28287,40.0777,0
-76.28711,40.07235,0
-76.2883,40.06732,0
-76.29121,40.06628,0
-76.29134,40.0673,0
-76.29008,40.06757,0
-76.28401,40.06489,0
-76.27517,40.05895,0
-76.26903,40.05509,0
-76.27438,40.05285,0
-76.27679,40.05226,0
-76.27834,40.05022,0
-76.28238,40.04533,0
-76.29119,40.04428,0
-76.29912,40.04345,0
-76.30406,40.04295,0
-76.30405,40.04034,0
  </coordinates></LineString>
</Placemark>
<Placemark>
  <name>Leg 5 (247.1 mi)</name>
  <styleUrl>#routeStyle</styleUrl>
  <LineString><tessellate>1</tessellate><coordinates>
-76.30405,40.04034,0
-76.30612,40.04028,0
-76.30645,40.04199,0
-76.30731,40.04655,0
-76.30845,40.05259,0
-76.31036,40.05352,0
-76.31286,40.06033,0
-76.31552,40.06715,0
-76.31931,40.07101,0
-76.32226,40.07134,0
-76.32679,40.07188,0
-76.33497,40.07518,0
-76.3523,40.08137,0
-76.37253,40.08519,0
-76.40062,40.09699,0
-76.43091,40.10657,0
-76.4822,40.13029,0
-76.50116,40.12936,0
-76.51723,40.12814,0
-76.53113,40.13085,0
-76.54791,40.13785,0
-76.57055,40.15485,0
-76.59683,40.17512,0
-76.61461,40.18833,0
-76.63804,40.19422,0
-76.6572,40.19452,0
-76.6854,40.19452,0
-76.70391,40.20362,0
-76.71091,40.21947,0
-76.71584,40.22381,0
-76.73359,40.22722,0
-76.77667,40.2237,0
-76.78495,40.22153,0
-76.79114,40.2243,0
-76.80011,40.2373,0
-76.81251,40.24894,0
-76.81311,40.25306,0
-76.83009,40.25582,0
-76.8461,40.25774,0
-76.86497,40.25428,0
-76.88452,40.24454,0
-76.89481,40.23865,0
-76.9055,40.23549,0
-76.93402,40.23166,0
-76.9677,40.23416,0
-76.97645,40.23764,0
-76.98123,40.24382,0
-76.99024,40.25614,0
-76.99972,40.26879,0
-77.00299,40.27522,0
-77.02297,40.27246,0
-77.03868,40.27133,0
-77.04848,40.26701,0
-77.06587,40.25739,0
-77.08012,40.24771,0
-77.09793,40.24304,0
-77.11872,40.24109,0
-77.13875,40.22477,0
-77.15163,40.21931,0
-77.15548,40.20972,0
-77.15998,40.19736,0
-77.16791,40.19185,0
-77.21698,40.18698,0
-77.23639,40.18552,0
-77.26132,40.17361,0
-77.29195,40.16036,0
-77.32731,40.14153,0
-77.35625,40.12556,0
-77.3832,40.10699,0
-77.40391,40.09747,0
-77.41753,40.08822,0
-77.46319,40.07006,0
-77.47414,40.06487,0
-77.48128,40.05815,0
-77.4908,40.04504,0
-77.50217,40.03323,0
-77.51552,40.02483,0
-77.53914,40.01163,0
-77.54942,40.00295,0
-77.56626,39.98588,0
-77.57377,39.9722,0
-77.58154,39.95625,0
-77.58863,39.95015,0
-77.60297,39.94976,0
-77.61617,39.94592,0
-77.63246,39.93342,0
-77.64273,39.91582,0
-77.65529,39.90621,0
-77.66515,39.89754,0
-77.67235,39.8858,0
-77.68155,39.86922,0
-77.6966,39.83401,0
-77.713,39.78765,0
-77.72543,39.75883,0
-77.72907,39.74923,0
-77.72799,39.74101,0
-77.72773,39.72561,0
-77.74026,39.71519,0
-77.74307,39.70904,0
-77.74043,39.70164,0
-77.73472,39.69325,0
-77.73338,39.68468,0
-77.73611,39.6695,0
-77.7565,39.64683,0
-77.76808,39.63644,0
-77.7784,39.62211,0
-77.79196,39.61533,0
-77.80198,39.60801,0
-77.8106,39.59244,0
-77.81812,39.58673,0
-77.82834,39.58465,0
-77.85177,39.58497,0
-77.86994,39.58025,0
-77.87915,39.57902,0
-77.88278,39.57603,0
-77.89194,39.56637,0
-77.90172,39.56021,0
-77.91607,39.53846,0
-77.92643,39.52807,0
-77.9311,39.51967,0
-77.93386,39.51258,0
-77.94034,39.50634,0
-77.95394,39.49877,0
-77.96892,39.49238,0
-77.97779,39.48398,0
-77.98757,39.47259,0
-77.9901,39.46014,0
-77.98936,39.44091,0
-77.9917,39.43631,0
-78.00526,39.42203,0
-78.02257,39.40863,0
-78.02741,39.39985,0
-78.0282,39.39244,0
-78.03025,39.38324,0
-78.03596,39.37653,0
-78.04483,39.36803,0
-78.04854,39.36142,0
-78.05859,39.34744,0
-78.06858,39.32776,0
-78.07833,39.31032,0
-78.08198,39.2949,0
-78.10168,39.25596,0
-78.11586,39.24175,0
-78.13519,39.23037,0
-78.13827,39.22454,0
-78.13746,39.2141,0
-78.13438,39.19716,0
-78.13432,39.19166,0
-78.13855,39.18341,0
-78.15121,39.17248,0
-78.16327,39.15744,0
-78.17111,39.1434,0
-78.19527,39.11591,0
-78.20689,39.09442,0
-78.21178,39.08563,0
-78.21959,39.07855,0
-78.23006,39.06813,0
-78.24198,39.05377,0
-78.27174,39.02657,0
-78.2989,39.01166,0
-78.30552,39.00676,0
-78.31473,39.00428,0
-78.33048,39.00668,0
-78.34809,39.01355,0
-78.35561,39.01526,0
-78.36428,39.01182,0
-78.38168,39.00372,0
-78.4164,38.98629,0
-78.42993,38.97085,0
-78.45708,38.95066,0
-78.484,38.92735,0
-78.50948,38.89872,0
-78.5268,38.87343,0
-78.53432,38.86031,0
-78.5464,38.84961,0
-78.57722,38.8297,0
-78.59289,38.81566,0
-78.60455,38.80172,0
-78.61261,38.7848,0
-78.62456,38.77003,0
-78.64415,38.75489,0
-78.65103,38.74613,0
-78.65106,38.73472,0
-78.65853,38.72502,0
-78.66095,38.71788,0
-78.65549,38.6988,0
-78.65941,38.68127,0
-78.66446,38.66861,0
-78.68386,38.63775,0
-78.70031,38.62522,0
-78.71595,38.60617,0
-78.74091,38.57335,0
-78.74718,38.55835,0
-78.75783,38.54605,0
-78.77047,38.53237,0
-78.77857,38.51823,0
-78.78799,38.50578,0
-78.80163,38.49331,0
-78.81279,38.47612,0
-78.8223,38.46442,0
-78.83431,38.45329,0
-78.84858,38.43928,0
-78.8576,38.43574,0
-78.87035,38.43363,0
-78.8797,38.42409,0
-78.8898,38.41338,0
-78.9054,38.40438,0
-78.91418,38.39002,0
-78.9202,38.37036,0
-78.93366,38.34541,0
-78.93084,38.31494,0
-78.93221,38.29315,0
-78.93602,38.27972,0
-78.9387,38.26775,0
-78.94826,38.25759,0
-78.97203,38.23263,0
-78.98884,38.21827,0
-78.99343,38.20666,0
-78.99878,38.18566,0
-79.00104,38.1782,0
-79.00917,38.1683,0
-79.02597,38.17692,0
-79.03137,38.18061,0
-79.03418,38.1782,0
-79.03829,38.17143,0
-79.04986,38.15859,0
-79.05682,38.15384,0
-79.06414,38.14744,0
-79.07003,38.14776,0
-79.07344,38.15048,0
-79.07369,38.14942,0
  </coordinates></LineString>
</Placemark>
<Placemark>
  <name>Leg 6 (153.1 mi)</name>
  <styleUrl>#routeStyle</styleUrl>
  <LineString><tessellate>1</tessellate><coordinates>
-79.07368,38.14941,0
-79.07369,38.14845,0
-79.07447,38.14779,0
-79.07419,38.14698,0
-79.07586,38.14381,0
-79.07816,38.14328,0
-79.08227,38.13981,0
-79.0861,38.13741,0
-79.09032,38.13221,0
-79.09471,38.13213,0
-79.09375,38.13081,0
-79.0927,38.13056,0
-79.08945,38.12802,0
-79.08414,38.126,0
-79.07522,38.12578,0
-79.06902,38.12316,0
-79.06631,38.12025,0
-79.06506,38.11666,0
-79.06296,38.10794,0
-79.07149,38.09918,0
-79.07502,38.09456,0
-79.08058,38.08327,0
-79.08836,38.07553,0
-79.10664,38.06553,0
-79.11457,38.05907,0
-79.1184,38.05147,0
-79.12457,38.04135,0
-79.13138,38.03234,0
-79.13725,38.02732,0
-79.14662,38.02157,0
-79.16363,38.01124,0
-79.17081,38.00524,0
-79.17603,37.99742,0
-79.18108,37.9853,0
-79.18484,37.97906,0
-79.18972,37.97402,0
-79.20184,37.96199,0
-79.22,37.94082,0
-79.23124,37.93047,0
-79.24043,37.9244,0
-79.25396,37.91457,0
-79.26547,37.90434,0
-79.27619,37.89266,0
-79.28065,37.88855,0
-79.28534,37.88601,0
-79.30722,37.8761,0
-79.32182,37.87046,0
-79.33283,37.86807,0
-79.35228,37.85621,0
-79.363,37.84947,0
-79.36621,37.8437,0
-79.37342,37.8302,0
-79.38597,37.81237,0
-79.39307,37.80148,0
-79.39679,37.79575,0
-79.39987,37.78895,0
-79.40105,37.77646,0
-79.40718,37.76257,0
-79.40994,37.75671,0
-79.41751,37.74723,0
-79.42976,37.73205,0
-79.43566,37.72469,0
-79.44406,37.71793,0
-79.46155,37.70568,0
-79.46765,37.70046,0
-79.47603,37.69535,0
-79.48434,37.68951,0
-79.49046,37.68405,0
-79.50337,37.67333,0
-79.51337,37.66644,0
-79.52196,37.6635,0
-79.54209,37.6554,0
-79.5496,37.65199,0
-79.55655,37.64669,0
-79.57097,37.63058,0
-79.57497,37.62808,0
-79.58084,37.62656,0
-79.58441,37.62431,0
-79.58771,37.61943,0
-79.59041,37.61537,0
-79.59341,37.61294,0
-79.59797,37.6117,0
-79.60818,37.61113,0
-79.61463,37.60925,0
-79.61733,37.60585,0
-79.62612,37.59624,0
-79.63963,37.58565,0
-79.65032,37.5692,0
-79.6637,37.55255,0
-79.66659,37.54786,0
-79.66895,37.54476,0
-79.68152,37.53756,0
-79.69075,37.53082,0
-79.70544,37.52518,0
-79.72629,37.51797,0
-79.73586,37.51363,0
-79.74025,37.511,0
-79.74387,37.50678,0
-79.74968,37.49922,0
-79.75495,37.49621,0
-79.76899,37.4898,0
-79.78065,37.48193,0
-79.79959,37.47388,0
-79.81825,37.46502,0
-79.8381,37.45785,0
-79.86182,37.4454,0
-79.87122,37.43542,0
-79.87729,37.42749,0
-79.88912,37.41257,0
-79.89606,37.4041,0
-79.8995,37.39826,0
-79.90805,37.38133,0
-79.91287,37.3745,0
-79.91965,37.36971,0
-79.92658,37.36673,0
-79.93616,37.36559,0
-79.95171,37.36191,0
-79.96026,37.36116,0
-79.97127,37.35979,0
-79.98946,37.34729,0
-79.99789,37.34202,0
-80.01117,37.33667,0
-80.02635,37.33084,0
-80.03321,37.32506,0
-80.03657,37.32155,0
-80.04038,37.31977,0
-80.04826,37.31777,0
-80.05634,37.31405,0
-80.07113,37.3058,0
-80.08077,37.29947,0
-80.09426,37.29502,0
-80.11464,37.28967,0
-80.12316,37.2859,0
-80.12974,37.28187,0
-80.13659,37.27768,0
-80.14143,37.27269,0
-80.14755,37.26846,0
-80.15538,37.26546,0
-80.17061,37.25958,0
-80.18284,37.25184,0
-80.19002,37.25022,0
-80.19811,37.24994,0
-80.20531,37.24843,0
-80.21057,37.24418,0
-80.21756,37.24163,0
-80.22509,37.23996,0
-80.23244,37.23823,0
-80.23754,37.23354,0
-80.23973,37.231,0
-80.24529,37.22773,0
-80.25155,37.22653,0
-80.25551,37.22393,0
-80.25904,37.21761,0
-80.26023,37.21243,0
-80.26235,37.20811,0
-80.2663,37.20433,0
-80.27001,37.19567,0
-80.28598,37.18533,0
-80.29248,37.18358,0
-80.29668,37.18094,0
-80.29903,37.17745,0
-80.30406,37.17206,0
-80.3183,37.16629,0
-80.32103,37.16333,0
-80.32421,37.15714,0
-80.32721,37.15324,0
-80.33092,37.15119,0
-80.34715,37.14437,0
-80.3529,37.14185,0
-80.35565,37.13905,0
-80.35989,37.13387,0
-80.3787,37.12608,0
-80.38895,37.12464,0
-80.39693,37.12355,0
-80.41479,37.11749,0
-80.43731,37.11465,0
-80.45837,37.10583,0
-80.4797,37.09515,0
-80.49134,37.09449,0
-80.50159,37.09505,0
-80.51509,37.09821,0
-80.52652,37.09896,0
-80.53653,37.09884,0
-80.54498,37.10025,0
-80.55383,37.10067,0
-80.56107,37.0976,0
-80.57752,37.09071,0
-80.58873,37.08655,0
-80.59795,37.08699,0
-80.6132,37.08725,0
-80.62064,37.08699,0
-80.62836,37.08827,0
-80.63992,37.088,0
-80.6486,37.08517,0
-80.65343,37.08276,0
-80.66916,37.07969,0
-80.68813,37.07991,0
-80.69488,37.07779,0
-80.7021,37.07415,0
-80.70485,37.07149,0
-80.70674,37.06712,0
-80.71124,37.05634,0
-80.71502,37.04836,0
-80.71933,37.04193,0
-80.72627,37.03564,0
-80.72892,37.0292,0
-80.73109,37.02252,0
-80.73635,37.01585,0
-80.73894,37.01341,0
-80.74345,37.01154,0
-80.75099,37.00809,0
-80.75797,37.0043,0
-80.76755,37.00163,0
-80.78746,36.99551,0
-80.7975,36.99227,0
-80.80793,36.99054,0
-80.81675,36.98863,0
-80.8257,36.98399,0
-80.8414,36.9756,0
-80.84734,36.9706,0
-80.85292,36.96465,0
-80.85939,36.95781,0
-80.86428,36.95452,0
-80.86867,36.953,0
-80.88666,36.94944,0
-80.9007,36.94675,0
-80.91238,36.94638,0
-80.92427,36.9486,0
-80.94861,36.94591,0
-80.97178,36.94182,0
-80.9825,36.93799,0
-80.98915,36.93717,0
-81.00043,36.93829,0
-81.00635,36.94057,0
-81.01346,36.94106,0
-81.02256,36.94139,0
-81.02591,36.9439,0
-81.03023,36.94569,0
-81.03759,36.94671,0
-81.04716,36.94612,0
-81.04904,36.94671,0
-81.04991,36.94818,0
-81.05249,36.94927,0
-81.05986,36.94769,0
-81.06815,36.95097,0
-81.07459,36.95095,0
-81.07679,36.95263,0
-81.07802,36.95272,0
-81.07999,36.95122,0
-81.08377,36.94834,0
-81.08494,36.94836,0
  </coordinates></LineString>
</Placemark>
<Placemark>
  <name>Leg 7 (180.7 mi)</name>
  <styleUrl>#routeStyle</styleUrl>
  <LineString><tessellate>1</tessellate><coordinates>
-81.08494,36.94836,0
-81.0887,36.94587,0
-81.09033,36.94632,0
-81.09447,36.94763,0
-81.10981,36.94413,0
-81.12109,36.94251,0
-81.13055,36.94187,0
-81.14107,36.94338,0
-81.14513,36.94274,0
-81.14901,36.94136,0
-81.15168,36.94065,0
-81.1543,36.94,0
-81.15726,36.93793,0
-81.16651,36.93646,0
-81.21124,36.92553,0
-81.22944,36.92159,0
-81.25596,36.91784,0
-81.27436,36.91594,0
-81.28453,36.91355,0
-81.29353,36.91105,0
-81.31122,36.90528,0
-81.32268,36.90166,0
-81.33295,36.89937,0
-81.35629,36.89463,0
-81.38556,36.88303,0
-81.39599,36.87803,0
-81.40108,36.87229,0
-81.41048,36.86826,0
-81.41775,36.86602,0
-81.43049,36.86359,0
-81.43982,36.86269,0
-81.44793,36.86178,0
-81.45975,36.85724,0
-81.47236,36.8518,0
-81.48111,36.85205,0
-81.48415,36.85028,0
-81.48705,36.84744,0
-81.49203,36.8426,0
-81.50525,36.82819,0
-81.51171,36.82406,0
-81.52315,36.82295,0
-81.54324,36.8214,0
-81.55426,36.81785,0
-81.5609,36.81381,0
-81.56982,36.81165,0
-81.57515,36.8116,0
-81.58225,36.81292,0
-81.59632,36.81314,0
-81.60739,36.8128,0
-81.61373,36.81021,0
-81.61943,36.80739,0
-81.62704,36.80649,0
-81.64762,36.80954,0
-81.65744,36.8096,0
-81.66219,36.80812,0
-81.66602,36.80592,0
-81.67236,36.80151,0
-81.68711,36.78946,0
-81.69291,36.78673,0
-81.69893,36.78633,0
-81.7055,36.78844,0
-81.71454,36.78851,0
-81.7286,36.7861,0
-81.73761,36.782,0
-81.755,36.77901,0
-81.7638,36.77678,0
-81.77481,36.77323,0
-81.78578,36.77112,0
-81.79638,36.76997,0
-81.81479,36.76926,0
-81.82333,36.7685,0
-81.83678,36.76426,0
-81.85465,36.75844,0
-81.87332,36.75275,0
-81.87978,36.75053,0
-81.88336,36.74833,0
-81.89314,36.74099,0
-81.90261,36.73605,0
-81.90715,36.73106,0
-81.9095,36.72783,0
-81.91667,36.72132,0
-81.92188,36.71828,0
-81.93104,36.71485,0
-81.94461,36.70988,0
-81.95389,36.70557,0
-81.96068,36.70147,0
-81.96688,36.69968,0
-81.97207,36.69951,0
-81.98071,36.69966,0
-81.99514,36.6959,0
-82.01302,36.69351,0
-82.02015,36.69061,0
-82.03167,36.68397,0
-82.04013,36.67788,0
-82.05459,36.66901,0
-82.07067,36.65685,0
-82.08102,36.65271,0
-82.08492,36.65059,0
-82.09046,36.64598,0
-82.09586,36.64148,0
-82.10325,36.6379,0
-82.11542,36.63291,0
-82.13363,36.6257,0
-82.13985,36.62503,0
-82.15453,36.62631,0
-82.1709,36.62705,0
-82.1783,36.62557,0
-82.18981,36.62126,0
-82.19993,36.6159,0
-82.21329,36.60946,0
-82.2508,36.59257,0
-82.26872,36.58276,0
-82.28957,36.5725,0
-82.30779,36.56392,0
-82.31119,36.56159,0
-82.31438,36.55794,0
-82.31992,36.55242,0
-82.32529,36.54962,0
-82.33296,36.54579,0
-82.34063,36.54196,0
-82.34863,36.53925,0
-82.35713,36.53856,0
-82.3654,36.53927,0
-82.3763,36.53857,0
-82.38619,36.53468,0
-82.39641,36.52678,0
-82.40476,36.52001,0
-82.41395,36.51349,0
-82.42233,36.51015,0
-82.43684,36.50611,0
-82.44891,36.50197,0
-82.46136,36.49464,0
-82.47877,36.48273,0
-82.50101,36.4685,0
-82.51963,36.45647,0
-82.5279,36.45108,0
-82.53169,36.4486,0
-82.53856,36.44518,0
-82.54573,36.44376,0
-82.5537,36.44224,0
-82.55913,36.43835,0
-82.57365,36.42542,0
-82.58006,36.4208,0
-82.59218,36.41342,0
-82.6076,36.40477,0
-82.61188,36.40307,0
-82.61693,36.40224,0
-82.62865,36.4034,0
-82.6373,36.40454,0
-82.64271,36.40399,0
-82.64609,36.40255,0
-82.6508,36.39825,0
-82.66713,36.38084,0
-82.67887,36.36953,0
-82.68875,36.36336,0
-82.69608,36.36016,0
-82.70724,36.35697,0
-82.72652,36.35511,0
-82.74919,36.35391,0
-82.76708,36.35061,0
-82.80347,36.33922,0
-82.81896,36.33158,0
-82.85298,36.31219,0
-82.87373,36.30261,0
-82.89522,36.2895,0
-82.90717,36.282,0
-82.92381,36.27377,0
-82.94119,36.26573,0
-82.95759,36.25694,0
-82.9737,36.24834,0
-82.9961,36.24017,0
-83.02008,36.23173,0
-83.07375,36.21278,0
-83.09013,36.20699,0
-83.1051,36.2037,0
-83.13318,36.19985,0
-83.16537,36.19575,0
-83.17587,36.19299,0
-83.18414,36.18943,0
-83.19938,36.18019,0
-83.21262,36.17197,0
-83.25132,36.14794,0
-83.26455,36.14126,0
-83.27852,36.1371,0
-83.29512,36.13413,0
-83.3031,36.13229,0
-83.31063,36.12949,0
-83.32326,36.12189,0
-83.33296,36.11264,0
-83.34664,36.09875,0
-83.35247,36.09282,0
-83.36132,36.08546,0
-83.39449,36.06417,0
-83.4082,36.05538,0
-83.42094,36.04746,0
-83.44762,36.03552,0
-83.4571,36.03107,0
-83.46222,36.02775,0
-83.46983,36.02469,0
-83.4851,36.02069,0
-83.50455,36.01562,0
-83.52788,36.00897,0
-83.55001,36.00029,0
-83.57372,35.99099,0
-83.58456,35.98681,0
-83.59364,35.98534,0
-83.61893,35.98258,0
-83.62744,35.98302,0
-83.64282,35.98552,0
-83.65511,35.98816,0
-83.66508,35.99146,0
-83.67565,35.99453,0
-83.68492,35.99613,0
-83.69972,35.99685,0
-83.71597,35.99702,0
-83.72574,35.99865,0
-83.74222,36.00429,0
-83.75255,36.00535,0
-83.76706,36.00399,0
-83.77678,36.00304,0
-83.7852,36.00347,0
-83.80753,36.00677,0
-83.82084,36.00964,0
-83.82894,36.00797,0
-83.83346,36.0072,0
-83.83599,36.00776,0
-83.84323,36.01138,0
-83.84955,36.01241,0
-83.85752,36.01365,0
-83.86172,36.0128,0
-83.87797,36.00565,0
-83.88555,36.00226,0
-83.89547,35.99568,0
-83.90436,35.98931,0
-83.9088,35.98647,0
-83.91233,35.98544,0
-83.91801,35.9832,0
-83.91891,35.98051,0
-83.91809,35.97471,0
-83.91686,35.97288,0
-83.91664,35.9707,0
-83.91724,35.96904,0
-83.91809,35.96875,0
-83.91916,35.96771,0
-83.92196,35.96605,0
-83.92283,35.96494,0
-83.92419,35.96507,0
-83.92348,35.96527,0
  </coordinates></LineString>
</Placemark>
<Placemark>
  <name>Leg 8 (179.7 mi)</name>
  <styleUrl>#routeStyle</styleUrl>
  <LineString><tessellate>1</tessellate><coordinates>
-83.92348,35.96527,0
-83.92432,35.9654,0
-83.92468,35.96675,0
-83.92689,35.96772,0
-83.92767,35.96731,0
-83.92916,35.9655,0
-83.93247,35.96465,0
-83.93589,35.96391,0
-83.93697,35.96525,0
-83.94181,35.96379,0
-83.95017,35.96358,0
-83.95795,35.95999,0
-83.96446,35.9592,0
-83.96941,35.95788,0
-83.97856,35.95314,0
-83.99204,35.94807,0
-83.99802,35.94468,0
-84.00917,35.93829,0
-84.02081,35.93363,0
-84.0324,35.93107,0
-84.07108,35.92256,0
-84.18356,35.89668,0
-84.20631,35.89099,0
-84.22178,35.88557,0
-84.25507,35.87019,0
-84.26071,35.87018,0
-84.26526,35.87143,0
-84.28523,35.87022,0
-84.30513,35.86879,0
-84.3106,35.86948,0
-84.32049,35.87323,0
-84.33859,35.88037,0
-84.34807,35.88123,0
-84.35574,35.88034,0
-84.36286,35.87812,0
-84.37803,35.87079,0
-84.39527,35.86239,0
-84.40393,35.86031,0
-84.41178,35.8625,0
-84.43416,35.86693,0
-84.44491,35.87202,0
-84.45194,35.87348,0
-84.4612,35.8734,0
-84.47707,35.87266,0
-84.49174,35.87202,0
-84.49932,35.87476,0
-84.51347,35.88417,0
-84.53729,35.89564,0
-84.5459,35.89518,0
-84.54984,35.89636,0
-84.55222,35.8991,0
-84.55526,35.90053,0
-84.56288,35.90157,0
-84.57269,35.90335,0
-84.57789,35.90894,0
-84.58628,35.9095,0
-84.5977,35.91285,0
-84.60884,35.9127,0
-84.62189,35.90568,0
-84.63804,35.9008,0
-84.64878,35.8995,0
-84.65923,35.89665,0
-84.66654,35.8953,0
-84.67267,35.89264,0
-84.68283,35.88727,0
-84.68659,35.88691,0
-84.69125,35.88813,0
-84.69629,35.89237,0
-84.70389,35.89689,0
-84.70943,35.89831,0
-84.71744,35.89834,0
-84.73083,35.89409,0
-84.73872,35.89232,0
-84.74644,35.89256,0
-84.76809,35.89893,0
-84.77414,35.90059,0
-84.7809,35.9007,0
-84.79244,35.90049,0
-84.79557,35.89884,0
-84.79678,35.89582,0
-84.7976,35.89315,0
-84.8002,35.8912,0
-84.80982,35.88501,0
-84.81672,35.88327,0
-84.82644,35.88672,0
-84.83646,35.88852,0
-84.84057,35.89141,0
-84.84246,35.89458,0
-84.84513,35.89655,0
-84.84943,35.89718,0
-84.85411,35.89933,0
-84.8587,35.90171,0
-84.86254,35.90178,0
-84.87099,35.90307,0
-84.88741,35.90985,0
-84.90395,35.917,0
-84.92133,35.93188,0
-84.93295,35.94341,0
-84.94906,35.95146,0
-84.95964,35.95662,0
-84.96744,35.95757,0
-84.97625,35.95865,0
-84.98372,35.96317,0
-84.99763,35.97235,0
-85.0133,35.98272,0
-85.02965,35.99255,0
-85.04483,36.00056,0
-85.06089,36.00959,0
-85.08581,36.02612,0
-85.10707,36.03881,0
-85.11536,36.04284,0
-85.125,36.04595,0
-85.16664,36.05275,0
-85.1757,36.05589,0
-85.18978,36.06771,0
-85.20223,36.07578,0
-85.22463,36.0891,0
-85.2356,36.09938,0
-85.23885,36.10502,0
-85.24093,36.11093,0
-85.25059,36.12006,0
-85.25982,36.13194,0
-85.26394,36.13677,0
-85.27034,36.13993,0
-85.2821,36.13966,0
-85.29095,36.14021,0
-85.29725,36.13995,0
-85.30436,36.14114,0
-85.30812,36.14001,0
-85.31143,36.13699,0
-85.31519,36.13522,0
-85.32157,36.1358,0
-85.32992,36.13654,0
-85.3379,36.13476,0
-85.34836,36.12983,0
-85.35249,36.12946,0
-85.35904,36.13239,0
-85.36391,36.13841,0
-85.36756,36.14371,0
-85.37118,36.14483,0
-85.37534,36.14441,0
-85.38268,36.14405,0
-85.39037,36.14448,0
-85.40544,36.14636,0
-85.41439,36.14592,0
-85.42078,36.14166,0
-85.42762,36.14045,0
-85.43643,36.13995,0
-85.44812,36.1369,0
-85.46608,36.13593,0
-85.48342,36.13539,0
-85.50777,36.13609,0
-85.53905,36.13657,0
-85.55553,36.13567,0
-85.56648,36.13754,0
-85.5799,36.13997,0
-85.59881,36.14104,0
-85.6092,36.14068,0
-85.62133,36.13858,0
-85.64562,36.13606,0
-85.655,36.13347,0
-85.67217,36.12834,0
-85.6809,36.12535,0
-85.68528,36.11984,0
-85.68593,36.11495,0
-85.68797,36.11151,0
-85.70167,36.10356,0
-85.7133,36.0969,0
-85.71968,36.09158,0
-85.72398,36.09002,0
-85.72746,36.09071,0
-85.73646,36.09576,0
-85.74468,36.10039,0
-85.75591,36.10442,0
-85.76508,36.10619,0
-85.77013,36.11028,0
-85.77732,36.11924,0
-85.77736,36.12516,0
-85.77912,36.12983,0
-85.78695,36.13734,0
-85.79168,36.14046,0
-85.79697,36.14122,0
-85.81144,36.1386,0
-85.82507,36.14031,0
-85.83452,36.14166,0
-85.84908,36.14534,0
-85.8568,36.14653,0
-85.86471,36.14644,0
-85.86783,36.14694,0
-85.87067,36.14892,0
-85.87626,36.15426,0
-85.88217,36.15991,0
-85.88918,36.16307,0
-85.89701,36.16498,0
-85.90347,36.16879,0
-85.91,36.17173,0
-85.92764,36.17604,0
-85.94948,36.17945,0
-85.95996,36.17885,0
-85.98718,36.18049,0
-85.99883,36.17918,0
-86.00967,36.17691,0
-86.03916,36.1716,0
-86.05441,36.16871,0
-86.06014,36.17022,0
-86.06535,36.17321,0
-86.07746,36.17516,0
-86.09065,36.17036,0
-86.10049,36.16673,0
-86.10901,36.16838,0
-86.1202,36.17086,0
-86.13042,36.1719,0
-86.13799,36.17544,0
-86.14603,36.1792,0
-86.16038,36.1859,0
-86.16795,36.18919,0
-86.1782,36.19095,0
-86.19924,36.19403,0
-86.22033,36.19412,0
-86.23928,36.19379,0
-86.25515,36.19153,0
-86.28051,36.18579,0
-86.29227,36.18312,0
-86.30405,36.1825,0
-86.34066,36.1835,0
-86.40387,36.18518,0
-86.45176,36.17912,0
-86.50762,36.1722,0
-86.53201,36.16732,0
-86.55313,36.16815,0
-86.58981,36.16994,0
-86.60059,36.17034,0
-86.60823,36.1686,0
-86.62812,36.15659,0
-86.64785,36.14434,0
-86.65355,36.14184,0
-86.6589,36.14105,0
-86.67913,36.14234,0
-86.69925,36.14419,0
-86.72079,36.14072,0
-86.73214,36.14137,0
-86.74385,36.14737,0
-86.75551,36.15311,0
-86.76019,36.15476,0
-86.76433,36.15349,0
-86.77251,36.14992,0
-86.77869,36.1489,0
-86.78381,36.1499,0
-86.78732,36.15295,0
-86.78972,36.1569,0
-86.7905,36.15829,0
-86.78868,36.15939,0
-86.78382,36.16159,0
-86.78154,36.16257,0
  </coordinates></LineString>
</Placemark>
<Placemark>
  <name>Leg 9 (221.2 mi)</name>
  <styleUrl>#routeStyle</styleUrl>
  <LineString><tessellate>1</tessellate><coordinates>
-86.78154,36.16257,0
-86.78829,36.15959,0
-86.79007,36.1587,0
-86.79223,36.15996,0
-86.7941,36.16494,0
-86.79786,36.17048,0
-86.80032,36.17282,0
-86.80246,36.17259,0
-86.80443,36.17085,0
-86.81045,36.16975,0
-86.81514,36.16819,0
-86.81882,36.16477,0
-86.82201,36.15935,0
-86.82579,36.1564,0
-86.837,36.15411,0
-86.85643,36.15272,0
-86.87005,36.15016,0
-86.87722,36.14764,0
-86.88228,36.14392,0
-86.89527,36.13433,0
-86.90259,36.12693,0
-86.91136,36.12085,0
-86.92146,36.11239,0
-86.93152,36.10483,0
-86.93443,36.10146,0
-86.93806,36.09382,0
-86.94073,36.08986,0
-86.94503,36.08681,0
-86.96516,36.07719,0
-86.97332,36.07416,0
-86.98143,36.07597,0
-86.99031,36.07815,0
-87.00391,36.07761,0
-87.02968,36.07725,0
-87.03596,36.07856,0
-87.04597,36.08451,0
-87.05055,36.08688,0
-87.06176,36.08779,0
-87.07804,36.08701,0
-87.09495,36.08422,0
-87.10362,36.08278,0
-87.10986,36.08058,0
-87.12297,36.07232,0
-87.13026,36.06442,0
-87.13855,36.05657,0
-87.14563,36.04563,0
-87.15135,36.04103,0
-87.15775,36.03778,0
-87.17123,36.03077,0
-87.18557,36.02377,0
-87.19264,36.02499,0
-87.19983,36.02761,0
-87.20802,36.03046,0
-87.21546,36.02774,0
-87.23476,36.01969,0
-87.24665,36.0176,0
-87.25815,36.02001,0
-87.27656,36.02541,0
-87.28212,36.02548,0
-87.29782,36.0244,0
-87.31252,36.02355,0
-87.3315,36.0205,0
-87.34842,36.0189,0
-87.36268,36.01853,0
-87.38559,36.00993,0
-87.40877,36.00626,0
-87.4231,35.99966,0
-87.4297,35.9966,0
-87.4378,35.9947,0
-87.45402,35.99663,0
-87.46488,35.99739,0
-87.47389,35.99473,0
-87.49354,35.98672,0
-87.50034,35.98148,0
-87.50847,35.97847,0
-87.52038,35.9756,0
-87.52771,35.97361,0
-87.53384,35.96984,0
-87.54286,35.96527,0
-87.54919,35.96115,0
-87.55723,35.94959,0
-87.56411,35.94504,0
-87.56902,35.94016,0
-87.57595,35.93667,0
-87.57939,35.9352,0
-87.5822,35.93225,0
-87.58711,35.92773,0
-87.59472,35.92546,0
-87.60516,35.91789,0
-87.61662,35.90866,0
-87.6321,35.8995,0
-87.64034,35.89491,0
-87.66137,35.88636,0
-87.66849,35.8848,0
-87.68304,35.8842,0
-87.69091,35.88281,0
-87.69879,35.87878,0
-87.70532,35.87543,0
-87.71372,35.8742,0
-87.73167,35.87613,0
-87.74917,35.87824,0
-87.76402,35.88386,0
-87.78733,35.88035,0
-87.79562,35.87901,0
-87.80499,35.88069,0
-87.81143,35.88186,0
-87.83055,35.88179,0
-87.84072,35.88171,0
-87.84732,35.87902,0
-87.85678,35.87492,0
-87.86385,35.87083,0
-87.87134,35.8685,0
-87.87983,35.86834,0
-87.88662,35.86616,0
-87.89423,35.86484,0
-87.90238,35.86471,0
-87.90978,35.8639,0
-87.91812,35.86654,0
-87.92711,35.86662,0
-87.93302,35.8656,0
-87.94134,35.86755,0
-87.95363,35.87021,0
-87.96801,35.86871,0
-88.00067,35.86972,0
-88.02373,35.87095,0
-88.03144,35.86973,0
-88.05275,35.85858,0
-88.07335,35.84748,0
-88.0872,35.84001,0
-88.10537,35.83021,0
-88.11487,35.82705,0
-88.12928,35.82329,0
-88.14393,35.81947,0
-88.15175,35.81891,0
-88.15919,35.8195,0
-88.16667,35.82009,0
-88.18896,35.81742,0
-88.21175,35.81503,0
-88.22957,35.81677,0
-88.25136,35.81894,0
-88.25897,35.8195,0
-88.26503,35.81857,0
-88.28337,35.81446,0
-88.29644,35.81152,0
-88.32109,35.80446,0
-88.3403,35.80164,0
-88.35142,35.80006,0
-88.36477,35.79735,0
-88.37865,35.79204,0
-88.39503,35.78879,0
-88.41537,35.78154,0
-88.43983,35.77284,0
-88.48644,35.76098,0
-88.51722,35.75407,0
-88.55388,35.74774,0
-88.56944,35.74432,0
-88.59051,35.7336,0
-88.60726,35.72659,0
-88.64329,35.71541,0
-88.67453,35.7051,0
-88.72733,35.68408,0
-88.73484,35.68148,0
-88.74388,35.68107,0
-88.76335,35.68087,0
-88.77651,35.67995,0
-88.806,35.67488,0
-88.83506,35.66991,0
-88.87718,35.65593,0
-88.8926,35.64993,0
-88.91688,35.64261,0
-88.9728,35.62598,0
-89.03037,35.60671,0
-89.0548,35.59711,0
-89.08023,35.58916,0
-89.17808,35.56038,0
-89.20566,35.55092,0
-89.22066,35.54503,0
-89.23535,35.54126,0
-89.25365,35.53691,0
-89.25671,35.53368,0
-89.25882,35.52734,0
-89.26486,35.50893,0
-89.27027,35.49244,0
-89.27373,35.48048,0
-89.27697,35.47611,0
-89.28612,35.47035,0
-89.29419,35.46552,0
-89.31634,35.45225,0
-89.3307,35.44256,0
-89.36378,35.42213,0
-89.41859,35.38849,0
-89.43118,35.38356,0
-89.44648,35.37888,0
-89.46538,35.37305,0
-89.50811,35.35379,0
-89.54691,35.33591,0
-89.56013,35.3282,0
-89.57896,35.31461,0
-89.60723,35.29419,0
-89.62168,35.28499,0
-89.63896,35.27599,0
-89.6753,35.25708,0
-89.69703,35.24579,0
-89.72791,35.22887,0
-89.74947,35.21608,0
-89.77745,35.20189,0
-89.82723,35.17947,0
-89.86961,35.16231,0
-89.876,35.15942,0
-89.87947,35.15664,0
-89.88357,35.15352,0
-89.8868,35.1537,0
-89.89021,35.15527,0
-89.89765,35.16303,0
-89.90529,35.17313,0
-89.91901,35.19084,0
-89.92234,35.19242,0
-89.92823,35.1928,0
-89.93844,35.19067,0
-89.96085,35.19095,0
-89.9933,35.19289,0
-90.01238,35.19183,0
-90.01707,35.19009,0
-90.01797,35.1845,0
-90.01857,35.17013,0
-90.02058,35.15786,0
-90.02255,35.1507,0
-90.02557,35.14993,0
-90.03088,35.15026,0
-90.04829,35.15308,0
-90.06832,35.15314,0
-90.09839,35.15316,0
-90.11639,35.15567,0
-90.12698,35.15689,0
-90.13903,35.1562,0
-90.14917,35.15537,0
-90.16123,35.15965,0
-90.17121,35.16358,0
-90.17446,35.16494,0
-90.17423,35.16637,0
-90.1753,35.16696,0
-90.17589,35.16637,0
-90.17594,35.1634,0
-90.17585,35.15723,0
-90.17585,35.15232,0
-90.1758,35.14785,0
-90.1765,35.14651,0
-90.18297,35.14652,0
-90.18481,35.14652,0
  </coordinates></LineString>
</Placemark>
<Placemark>
  <name>Leg 10 (127.2 mi)</name>
  <styleUrl>#routeStyle</styleUrl>
  <LineString><tessellate>1</tessellate><coordinates>
-90.18481,35.14652,0
-90.1893,35.14655,0
-90.19388,35.14637,0
-90.20782,35.14595,0
-90.21134,35.14634,0
-90.21807,35.1466,0
-90.22855,35.1467,0
-90.26572,35.14712,0
-90.28984,35.14749,0
-90.29178,35.14747,0
-90.29261,35.14754,0
-90.29273,35.14789,0
-90.2926,35.14835,0
-90.2927,35.14893,0
-90.29271,35.14951,0
-90.29302,35.14951,0
-90.29344,35.14937,0
-90.29455,35.14849,0
-90.29557,35.14831,0
-90.29828,35.14803,0
-90.30368,35.14798,0
-90.31222,35.14805,0
-90.32198,35.14815,0
-90.33497,35.14862,0
-90.39601,35.15152,0
-90.40002,35.15126,0
-90.40215,35.15084,0
-90.40415,35.15024,0
-90.40814,35.14847,0
-90.41529,35.14504,0
-90.4239,35.14091,0
-90.43272,35.13667,0
-90.43514,35.13562,0
-90.43657,35.13515,0
-90.44023,35.13441,0
-90.45444,35.13386,0
-90.48799,35.13273,0
-90.5025,35.13224,0
-90.50551,35.13208,0
-90.50979,35.13152,0
-90.51324,35.13077,0
-90.51565,35.13007,0
-90.52221,35.12779,0
-90.53542,35.12316,0
-90.54797,35.11877,0
-90.56919,35.11133,0
-90.57933,35.10788,0
-90.59989,35.1012,0
-90.62208,35.09399,0
-90.63744,35.08899,0
-90.64138,35.08761,0
-90.6461,35.08536,0
-90.65045,35.08256,0
-90.66223,35.07436,0
-90.67916,35.06258,0
-90.68878,35.05681,0
-90.6954,35.05288,0
-90.69847,35.051,0
-90.70159,35.04884,0
-90.70906,35.04364,0
-90.71521,35.03935,0
-90.72174,35.03492,0
-90.7236,35.034,0
-90.72539,35.03333,0
-90.72921,35.03245,0
-90.73143,35.03225,0
-90.73398,35.03229,0
-90.73622,35.03255,0
-90.7401,35.03341,0
-90.74846,35.03535,0
-90.75459,35.03678,0
-90.75693,35.03728,0
-90.75918,35.03754,0
-90.76495,35.03764,0
-90.77222,35.03772,0
-90.7772,35.03762,0
-90.79375,35.03612,0
-90.79838,35.03533,0
-90.80036,35.03485,0
-90.80374,35.03378,0
-90.8072,35.03235,0
-90.81099,35.03035,0
-90.81906,35.02538,0
-90.83772,35.01391,0
-90.85286,35.00461,0
-90.85559,35.00319,0
-90.85866,35.00189,0
-90.86499,34.99965,0
-90.87144,34.99738,0
-90.87571,34.99588,0
-90.87999,34.99416,0
-90.888,34.99083,0
-90.8932,34.98867,0
-90.90628,34.98323,0
-90.91902,34.97799,0
-90.92269,34.97707,0
-90.92629,34.97666,0
-90.93995,34.97524,0
-90.9486,34.97429,0
-90.95218,34.97361,0
-90.96205,34.97069,0
-90.98735,34.96293,0
-91.03932,34.947,0
-91.04567,34.94508,0
-91.05005,34.94412,0
-91.05734,34.94277,0
-91.06266,34.94148,0
-91.07464,34.93712,0
-91.08079,34.93485,0
-91.08563,34.93325,0
-91.09052,34.93224,0
-91.09696,34.9313,0
-91.11539,34.92863,0
-91.11929,34.92804,0
-91.12198,34.92741,0
-91.12703,34.92558,0
-91.13216,34.92358,0
-91.13798,34.92131,0
-91.14177,34.92006,0
-91.14659,34.919,0
-91.15274,34.91798,0
-91.15729,34.91717,0
-91.16037,34.91638,0
-91.16768,34.91369,0
-91.1712,34.91235,0
-91.17445,34.91133,0
-91.18091,34.90993,0
-91.18596,34.90937,0
-91.20787,34.9085,0
-91.21175,34.9083,0
-91.21562,34.90789,0
-91.2215,34.90684,0
-91.22472,34.90603,0
-91.22988,34.90436,0
-91.23429,34.90254,0
-91.2386,34.90036,0
-91.24296,34.89767,0
-91.25061,34.89199,0
-91.26332,34.88242,0
-91.2712,34.87665,0
-91.27592,34.87412,0
-91.27977,34.87259,0
-91.28305,34.87161,0
-91.29039,34.86985,0
-91.29843,34.86792,0
-91.30751,34.86574,0
-91.31218,34.86432,0
-91.31632,34.86244,0
-91.32362,34.85893,0
-91.32914,34.85628,0
-91.33669,34.8528,0
-91.34018,34.85172,0
-91.34328,34.8511,0
-91.34701,34.85067,0
-91.35525,34.84975,0
-91.36346,34.84834,0
-91.3752,34.84628,0
-91.37764,34.84601,0
-91.38109,34.84584,0
-91.39085,34.84597,0
-91.40282,34.84615,0
-91.41635,34.84635,0
-91.42382,34.84646,0
-91.42825,34.8462,0
-91.43343,34.84535,0
-91.4397,34.84385,0
-91.44818,34.84192,0
-91.45321,34.8412,0
-91.45712,34.84037,0
-91.45933,34.83975,0
-91.46344,34.83833,0
-91.46657,34.83745,0
-91.47386,34.8357,0
-91.47845,34.83461,0
-91.48093,34.83387,0
-91.48207,34.83341,0
-91.48683,34.83086,0
-91.49101,34.82869,0
-91.49437,34.82734,0
-91.49709,34.82647,0
-91.50378,34.82437,0
-91.51366,34.82126,0
-91.51795,34.81991,0
-91.52022,34.8193,0
-91.5225,34.81892,0
-91.5258,34.81878,0
-91.5319,34.81884,0
-91.5442,34.81895,0
-91.5618,34.81911,0
-91.57259,34.81921,0
-91.58448,34.81931,0
-91.59275,34.81893,0
-91.60354,34.8184,0
-91.61676,34.81828,0
-91.64843,34.8181,0
-91.65215,34.81808,0
-91.65495,34.81798,0
-91.65706,34.81769,0
-91.65938,34.81714,0
-91.66135,34.81646,0
-91.66467,34.81502,0
-91.67257,34.81158,0
-91.68382,34.80667,0
-91.68973,34.80409,0
-91.69322,34.80289,0
-91.69649,34.80232,0
-91.69885,34.80221,0
-91.70272,34.8023,0
-91.72119,34.80276,0
-91.72862,34.80285,0
-91.73419,34.80233,0
-91.74629,34.80095,0
-91.75601,34.79984,0
-91.76488,34.79883,0
-91.77006,34.79828,0
-91.77391,34.79818,0
-91.78835,34.79871,0
-91.80032,34.79887,0
-91.81782,34.79933,0
-91.83308,34.79957,0
-91.83733,34.7997,0
-91.84169,34.80024,0
-91.85137,34.80202,0
-91.8624,34.80403,0
-91.86713,34.80454,0
-91.87298,34.80455,0
-91.88093,34.80436,0
-91.89124,34.80413,0
-91.9089,34.80371,0
-91.94475,34.80369,0
-91.95243,34.80369,0
-91.96019,34.80351,0
-91.9773,34.80279,0
-92.00121,34.80178,0
-92.01167,34.80133,0
-92.014,34.80115,0
-92.01833,34.80049,0
-92.02163,34.7997,0
-92.02742,34.79786,0
-92.03512,34.79537,0
-92.0416,34.79341,0
-92.04484,34.79276,0
-92.0475,34.7924,0
-92.05273,34.79205,0
-92.06304,34.79144,0
-92.07256,34.79089,0
-92.08128,34.7901,0
-92.09235,34.78891,0
-92.1116,34.78682,0
-92.14043,34.78369,0
-92.18452,34.77892,0
-92.19283,34.7781,0
-92.19708,34.77834,0
-92.20075,34.77869,0
-92.20888,34.77945,0
-92.21339,34.77987,0
-92.21539,34.78002,0
-92.21766,34.77989,0
-92.22442,34.77906,0
-92.23149,34.77819,0
-92.23571,34.77767,0
-92.23787,34.77745,0
-92.23985,34.77747,0
-92.24658,34.77806,0
-92.25253,34.77856,0
-92.25464,34.7785,0
-92.25679,34.77805,0
-92.25847,34.77737,0
-92.26014,34.7763,0
-92.2613,34.77512,0
-92.26165,34.77429,0
-92.26177,34.77356,0
-92.26189,34.77055,0
-92.2622,34.76305,0
-92.26237,34.75762,0
-92.26236,34.75608,0
-92.26245,34.75541,0
-92.26255,34.75383,0
-92.26275,34.74975,0
-92.26297,34.74658,0
-92.26319,34.74527,0
-92.26342,34.74411,0
-92.2634,34.74246,0
-92.26364,34.74213,0
-92.26538,34.74236,0
-92.26961,34.74292,0
-92.27489,34.74364,0
-92.27609,34.7438,0
-92.27622,34.74312,0
-92.27628,34.74283,0
  </coordinates></LineString>
</Placemark>
<Placemark>
  <name>Rochester, NY</name>
  <description></description>
  <Point><coordinates>-77.6088465,43.15657789999999,0</coordinates></Point>
</Placemark>
<Placemark>
  <name>Grand Island, NY</name>
  <description>HTR Niagara falls (https://www.htrresorts.com/destinations/niagara/)
2659 Whitehaven Road, Grand Island, NY 14072 deposit paid</description>
  <Point><coordinates>-78.9657312,43.0216965,0</coordinates></Point>
</Placemark>
<Placemark>
  <name>Ithaca, NY</name>
  <description>Spruce Row Camptround (https://www.sprucerow.com/)
2271 Kraft Rd., Ithaca, NY 14850</description>
  <Point><coordinates>-76.5018807,42.4439614,0</coordinates></Point>
</Placemark>
<Placemark>
  <name>Scranton, PA</name>
  <description>Lehigh Gorge Campground (https://www.lehighgorgecampground.com/)
4585 State Street, White Haven, PA 18661
570-443-9191 elizabeth</description>
  <Point><coordinates>-75.661099,41.410314,0</coordinates></Point>
</Placemark>
<Placemark>
  <name>Lancaster, PA</name>
  <description>Country Acres Campground (https://bird-in-hand.com/country-acres-campground)
20 Leven Road, Gordonville, PA 17529
(717) 687-8014 betty</description>
  <Point><coordinates>-76.30418329999999,40.0403279,0</coordinates></Point>
</Placemark>
<Placemark>
  <name>Staunton, VA</name>
  <description>Walnut Hills Campground (https://www.walnuthillscampground.com/)
484 Walnut Hills Road, Staunton, VA 24401
(540) 337-3920</description>
  <Point><coordinates>-79.0737047,38.1494226,0</coordinates></Point>
</Placemark>
<Placemark>
  <name>Wytheville, VA</name>
  <description></description>
  <Point><coordinates>-81.084811,36.9484528,0</coordinates></Point>
</Placemark>
<Placemark>
  <name>Knoxville, TN</name>
  <description></description>
  <Point><coordinates>-83.923304,35.965266,0</coordinates></Point>
</Placemark>
<Placemark>
  <name>Nashville, TN</name>
  <description></description>
  <Point><coordinates>-86.7816016,36.1626638,0</coordinates></Point>
</Placemark>
<Placemark>
  <name>West Memphis, AR</name>
  <description></description>
  <Point><coordinates>-90.18478619999999,35.1465418,0</coordinates></Point>
</Placemark>
<Placemark>
  <name>Little Rock, AR</name>
  <description></description>
  <Point><coordinates>-92.27629040000001,34.7428286,0</coordinates></Point>
</Placemark>
</Document>
</kml>
